{
  "norad_id": 37384,
  "name": "BEIDOU-2 IGSO-3",
  "history": [
    {
      "epoch": "2026-03-26T19:21:38.699424Z",
      "apogee_km": 35926.455006077245,
      "perigee_km": 35638.088770985996,
      "latitude_deg": -0.9287199858371108,
      "longitude_deg": 106.72541373196663,
      "height_km": 35640.21329816035,
      "semi_major_axis_km": 42160.40888853162,
      "eccentricity": 0.00341987,
      "inclination_deg": 62.3016,
      "raan_deg": 40.9294,
      "arg_perigee_deg": 190.2272,
      "mean_anomaly_deg": 350.7783,
      "mean_motion_rev_day": 1.00287208
    }
  ]
}